TJS-14                  
1 62804U 25017A   26197.27355637  .00000105  00000+0  00000+0 0  9992
2 62804   0.7185 297.8238 0002041 308.8565 164.3162  1.00267499  5561
SPAINSAT NG I           
1 62852U 25021A   26197.20437383  .00000141  00000+0  00000+0 0  9992
2 62852   0.0191  33.9825 0000098 249.5440 113.0617  1.00270525  4275
QZS-6 (MICHIBIKI-6)     
1 62876U 25023A   26196.78887578 -.00000242  00000+0  00000+0 0  9990
2 62876   0.0103  12.6020 0001839 119.3403 176.0977  1.00266863  5237
ZHONGXING-10R           
1 63075U 25036A   26197.29175645 -.00000363  00000+0  00000+0 0  9992
2 63075   0.0104 177.0810 0004213 330.0368   2.5564  1.00271730  5250
TJS-15                  
1 63157U 25045A   26196.78956911 -.00000275  00000+0  00000+0 0  9991
2 63157   0.3119  85.6598 0003066 292.9051 293.6840  1.00273597  5047
TIANLIAN 2-04           
1 63361U 25062A   26197.14326444 -.00000143  00000+0  00000+0 0  9994
2 63361   4.3017 274.0236 0031596   9.3342 142.2126  1.00271422  4893
TJS-16                  
1 63397U 25064A   26196.78744207 -.00000116  00000+0  00000+0 0  9995
2 63397   1.1700  81.2787 0002479 291.6842   4.7594  1.00270906  4677
TJS-17                  
1 63524U 25073A   26196.78645788 -.00000081  00000+0  00000+0 0  9992
2 63524   1.1360  82.4463 0000992 306.3943 352.4100  1.00270762  4574
TIANLIAN 2-05           
1 63662U 25084A   26197.27398970  .00000116  00000+0  00000+0 0  9998
2 63662   4.3789 279.5038 0002608 154.6694 338.9299  1.00272047  4674
TJS-19                  
1 63924U 25097A   26196.78800941 -.00000283  00000+0  00000+0 0  9990
2 63924   3.2394 317.9160 0004092 253.1642 147.4040  1.00275653  4432
CHINASAT 3B             
1 64062U 25106A   26196.94653451 -.00000056  00000+0  00000+0 0  9993
2 64062   0.0244 146.4162 0003952   0.0125 295.4191  1.00270831  4345
SXM-10                  
1 64290U 25122A   26194.60932681 -.00000021  00000+0  00000+0 0  9992
2 64290   0.0157  36.2449 0001828 322.9748  35.4661  1.00271903  3942
COSMOS 2589             
1 64467U 25131A   26196.77108698 -.00000301  00000+0  00000+0 0  9992
2 64467   0.0263 114.6010 0000982  81.0100 113.6102  1.00270156  3843
CHINASAT 9C             
1 64470U 25132A   26197.28820310  .00000000  00000+0  00000+0 0  9991
2 64470   0.0198  80.7569 0003026  33.6794  15.6347  1.00266410  4447
MTG-S1                  
1 64723U 25143A   26197.26982968 -.00000018  00000+0  00000+0 0  9990
2 64723   0.5838 345.3909 0003415 260.8593 144.5947  1.00273830  3716
DROR 1                  
1 64784U 25148A   26197.26913634 -.00000045  00000+0  00000+0 0  9996
2 64784   0.0455 248.6830 0001987 148.8993 349.4092  1.00272162  3581
SHIYAN-29               
1 65486U 25196A   26196.70123477 -.00000287  00000+0  00000+0 0  9993
2 65486  28.8520  18.1755 0013258 177.9039  85.2184  1.00276249  3167
NUSANTARA LIMA (NUSANT*)
1 65588U 25205A   26196.79329580 -.00000368  00000+0  00000+0 0  9999
2 65588   0.0085 120.1832 0000409  84.7645 127.1025  1.00271718  3009
TJS-20                  
1 66142U 25238A   26196.92582108  .00000017  00000+0  00000+0 0  9994
2 66142   5.4063 299.4408 0004310 182.5842 207.5074  1.00275280  2623
CMS-03 (GSAT-7R)        
1 66311U 25249B   26197.18913899 -.00000087  00000+0  00000+0 0  9996
2 66311   0.0125 340.3742 0001502 100.2345 355.4751  1.00271411  2631
VIASAT-3 F2             
1 66454U 25261A   26195.32953781 -.00000240  00000+0  00000+0 0  9997
2 66454   0.0014 307.9780 0000749 275.9845 107.8920  1.00270448  3068
SHIJIAN-28 (SJ-28)      
1 66549U 25277A   26197.22170725 -.00000369  00000+0  00000+0 0  9991
2 66549   4.4645 271.6721 0001134  23.0127 195.9652  1.00266454  2440
TJS-22                  
1 66990U 25290A   26193.80754925 -.00000005  00000+0  00000+0 0  9993
2 66990   1.4677 286.9097 0002691 318.9700  42.0235  1.00269739  2289
TJS-23                  
1 67226U 25306A   26196.52394281  .00000013  00000+0  00000+0 0  9999
2 67226   5.5248 297.3376 0005035 195.1882 165.0385  1.00275619  2172
FENGYUN 4C              
1 67246U 25312A   26194.65865777 -.00000328  00000+0  00000+0 0  9993
2 67246   0.0385 175.3203 0000658  48.7481  77.5697  1.00269440  2048
SHIJIAN-29A (SJ-29A)    
1 67302U 25315A   26197.17525187 -.00000080  00000+0  00000+0 0  9992
2 67302   3.4697  94.4117 0004897  52.0458 283.8055  1.00272540  1909
SHIJIAN-29B (SJ-29B)    
1 67403U 25315C   26197.07054934 -.00000081  00000+0  00000+0 0  9991
2 67403   3.4684  94.4067 0005033  54.1833 243.9251  1.00272803  1978
ELEKTRO-L 5             
1 67756U 26028A   26196.97247441 -.00000108  00000+0  00000+0 0  9999
2 67756   0.2064 325.2168 0002074 175.9942 218.7841  1.00271896  1547
JAM-E JAM 1             
1 67757U 26028B   26197.20541383  .00000145  00000+0  00000+0 0  9999
2 67757   0.2044 313.4413 0001652 320.1307 128.4525  1.00274460  1410
ECHOSTAR 25             
1 68126U 26045A   26197.17682943  .00000000  00000+0  00000+0 0  9993
2 68126   0.0228  65.6481 0001719  45.9411 136.0964  1.00268609  1281
TJS-24                  
1 69235U 26116A   26197.14525778 -.00000241  00000+0  00000+0 0  9991
2 69235   0.0799  94.6233 0000359 120.8403 221.0931  1.00269577   515
