OBJECT_NAME,OBJECT_ID,EPOCH,MEAN_MOTION,ECCENTRICITY,INCLINATION,RA_OF_ASC_NODE,ARG_OF_PERICENTER,MEAN_ANOMALY,EPHEMERIS_TYPE,CLASSIFICATION_TYPE,NORAD_CAT_ID,ELEMENT_SET_NO,REV_AT_EPOCH,BSTAR,MEAN_MOTION_DOT,MEAN_MOTION_DDOT
TJS-14,2025-017A,2026-07-16T06:33:55.270368,1.00267499,.00020418,0.7185,297.8238,308.8565,164.3162,0,U,62804,999,556,0,.105E-5,0
SPAINSAT NG I,2025-021A,2026-07-16T04:54:17.898912,1.00270525,.00000983,0.0191,33.9825,249.5440,113.0617,0,U,62852,999,427,0,.141E-5,0
QZS-6 (MICHIBIKI-6),2025-023A,2026-07-15T18:55:58.867392,1.00266863,.00018396,0.0103,12.6020,119.3403,176.0977,0,U,62876,999,523,0,-.242E-5,0
ZHONGXING-10R,2025-036A,2026-07-16T07:00:07.757280,1.00271730,.00042138,0.0104,177.0810,330.0368,2.5564,0,U,63075,999,525,0,-.363E-5,0
TJS-15,2025-045A,2026-07-15T18:56:58.771104,1.00273597,.0003066,0.3119,85.6598,292.9051,293.6840,0,U,63157,999,504,0,-.275E-5,0
TIANLIAN 2-04,2025-062A,2026-07-16T03:26:18.047616,1.00271422,.00315968,4.3017,274.0236,9.3342,142.2126,0,U,63361,999,489,0,-.143E-5,0
TJS-16,2025-064A,2026-07-15T18:53:54.994848,1.00270906,.0002479,1.1700,81.2787,291.6842,4.7594,0,U,63397,999,467,0,-.116E-5,0
TJS-17,2025-073A,2026-07-15T18:52:29.960832,1.00270762,.0000992,1.1360,82.4463,306.3943,352.4100,0,U,63524,999,457,0,-.81E-6,0
TIANLIAN 2-05,2025-084A,2026-07-16T06:34:32.710080,1.00272047,.0002608,4.3789,279.5038,154.6694,338.9299,0,U,63662,999,467,0,.116E-5,0
TJS-19,2025-097A,2026-07-15T18:54:44.013024,1.00275653,.0004092,3.2394,317.9160,253.1642,147.4040,0,U,63924,999,443,0,-.283E-5,0
CHINASAT 3B,2025-106A,2026-07-15T22:43:00.581664,1.00270831,.0003952,0.0244,146.4162,0.0125,295.4191,0,U,64062,999,434,0,-.56E-6,0
SXM-10,2025-122A,2026-07-13T14:37:25.836384,1.00271903,.00018282,0.0157,36.2449,322.9748,35.4661,0,U,64290,999,394,0,-.21E-6,0
COSMOS 2589,2025-131A,2026-07-15T18:30:21.915072,1.00270156,.0000982,0.0263,114.6010,81.0100,113.6102,0,U,64467,999,384,0,-.301E-5,0
CHINASAT 9C,2025-132A,2026-07-16T06:55:00.747840,1.00266410,.0003026,0.0198,80.7569,33.6794,15.6347,0,U,64470,999,444,0,0,0
MTG-S1,2025-143A,2026-07-16T06:28:33.284352,1.00273830,.00034154,0.5838,345.3909,260.8593,144.5947,0,U,64723,999,371,0,-.18E-6,0
DROR 1,2025-148A,2026-07-16T06:27:33.379776,1.00272162,.00019879,0.0455,248.6830,148.8993,349.4092,0,U,64784,999,358,0,-.45E-6,0
SHIYAN-29,2025-196A,2026-07-15T16:49:46.684128,1.00276249,.0013258,28.8520,18.1755,177.9039,85.2184,0,U,65486,999,316,0,-.287E-5,0
NUSANTARA LIMA (NUSANTARA 5),2025-205A,2026-07-15T19:02:20.757120,1.00271718,.00004094,0.0085,120.1832,84.7645,127.1025,0,U,65588,999,300,0,-.368E-5,0
TJS-20,2025-238A,2026-07-15T22:13:10.941312,1.00275280,.000431,5.4063,299.4408,182.5842,207.5074,0,U,66142,999,262,0,.17E-6,0
CMS-03 (GSAT-7R),2025-249B,2026-07-16T04:32:21.608736,1.00271411,.0001502,0.0125,340.3742,100.2345,355.4751,0,U,66311,999,263,0,-.87E-6,0
VIASAT-3 F2,2025-261A,2026-07-14T07:54:32.066784,1.00270448,.00007495,0.0014,307.9780,275.9845,107.8920,0,U,66454,999,306,0,-.24E-5,0
SHIJIAN-28 (SJ-28),2025-277A,2026-07-16T05:19:15.506400,1.00266454,.00011346,4.4645,271.6721,23.0127,195.9652,0,U,66549,999,244,0,-.369E-5,0
TJS-22,2025-290A,2026-07-12T19:22:52.255200,1.00269739,.0002691,1.4677,286.9097,318.9700,42.0235,0,U,66990,999,228,0,-.5E-7,0
TJS-23,2025-306A,2026-07-15T12:34:28.658784,1.00275619,.00050357,5.5248,297.3376,195.1882,165.0385,0,U,67226,999,217,0,.13E-6,0
FENGYUN 4C,2025-312A,2026-07-13T15:48:28.031328,1.00269440,.00006584,0.0385,175.3203,48.7481,77.5697,0,U,67246,999,204,0,-.328E-5,0
SHIJIAN-29A (SJ-29A),2025-315A,2026-07-16T04:12:21.761568,1.00272540,.00048978,3.4697,94.4117,52.0458,283.8055,0,U,67302,999,190,0,-.8E-6,0
SHIJIAN-29B (SJ-29B),2025-315C,2026-07-16T01:41:35.462976,1.00272803,.00050338,3.4684,94.4067,54.1833,243.9251,0,U,67403,999,197,0,-.81E-6,0
ELEKTRO-L 5,2026-028A,2026-07-15T23:20:21.789024,1.00271896,.00020749,0.2064,325.2168,175.9942,218.7841,0,U,67756,999,154,0,-.108E-5,0
JAM-E JAM 1,2026-028B,2026-07-16T04:55:47.754912,1.00274460,.00016529,0.2044,313.4413,320.1307,128.4525,0,U,67757,999,141,0,.145E-5,0
ECHOSTAR 25,2026-045A,2026-07-16T04:14:38.062752,1.00268609,.00017191,0.0228,65.6481,45.9411,136.0964,0,U,68126,999,128,0,0,0
TJS-24,2026-116A,2026-07-16T03:29:10.272192,1.00269577,.00003598,0.0799,94.6233,120.8403,221.0931,0,U,69235,999,51,0,-.241E-5,0
